[Satellite]
VERSION=1.1
NAME=ALOS-2
NICKNAME=ALOS-2
TLE1=1 39766U 14029A   22342.49184445 -.00000015  00000+0  48496-5 0  9991
TLE2=2 39766  97.9227  77.1293 0001416  92.0654 268.0693 14.79470951461367
STATUS=0
